{"type": "FeatureCollection", "features": [{"type": "Feature", "id": "puntos_de_transporte_ferroviario_AN070.4953", "geometry": {"type": "Point", "coordinates": [-63.65578844, -40.83008573]}, "geometry_name": "geom", "properties": {"gid": 4953, "entidad": 0, "fna": "Estación General Liborio Bernal", "gna": "Estación", "nam": "General Liborio Bernal", "fun": 2, "fdc": "IGN/Ministerio de Transporte de la Nación", "sag": "IGN"}, "bbox": [-63.65578844, -40.83008573, -63.65578844, -40.83008573]}, {"type": "Feature", "id": "puntos_de_transporte_ferroviario_AN070.4954", "geometry": {"type": "Point", "coordinates": [-64.24956157, -40.74616288]}, "geometry_name": "geom", "properties": {"gid": 4954, "entidad": 0, "fna": "Estación Nuevo León", "gna": "Estación", "nam": "Nuevo León", "fun": 2, "fdc": "IGN/Ministerio de Transporte de la Nación", "sag": "IGN"}, "bbox": [-64.24956157, -40.74616288, -64.24956157, -40.74616288]}, {"type": "Feature", "id": "puntos_de_transporte_ferroviario_AN070.4955", "geometry": {"type": "Point", "coordinates": [-64.49514409, -40.74618434]}, "geometry_name": "geom", "properties": {"gid": 4955, "entidad": 0, "fna": "Estación General Lorenzo Vintter", "gna": "Estación", "nam": "General Lorenzo Vintter", "fun": 2, "fdc": "IGN/Ministerio de Transporte de la Nación", "sag": "IGN"}, "bbox": [-64.49514409, -40.74618434, -64.49514409, -40.74618434]}, {"type": "Feature", "id": "puntos_de_transporte_ferroviario_AN070.4956", "geometry": {"type": "Point", "coordinates": [-66.40100512, -40.59784688]}, "geometry_name": "geom", "properties": {"gid": 4956, "entidad": 0, "fna": "Estación Musters", "gna": "Estación", "nam": "Musters", "fun": 2, "fdc": "IGN/Ministerio de Transporte de la Nación", "sag": "IGN"}, "bbox": [-66.40100512, -40.59784688, -66.40100512, -40.59784688]}, {"type": "Feature", "id": "puntos_de_transporte_ferroviario_AN070.4957", "geometry": {"type": "Point", "coordinates": [-65.22429185, -40.7302131]}, "geometry_name": "geom", "properties": {"gid": 4957, "entidad": 0, "fna": "Desvío Cinco Chañares", "gna": "Desvío", "nam": "Cinco Chañares", "fun": 2, "fdc": "IGN/Ministerio de Transporte de la Nación", "sag": "IGN"}, "bbox": [-65.22429185, -40.7302131, -65.22429185, -40.7302131]}, {"type": "Feature", "id": "puntos_de_transporte_ferroviario_AN070.4958", "geometry": {"type": "Point", "coordinates": [-66.77880747, -40.50289667]}, "geometry_name": "geom", "properties": {"gid": 4958, "entidad": 0, "fna": "Estación Teniente Maza", "gna": "Estación", "nam": "Teniente Maza", "fun": 4, "fdc": "IGN/Ministerio de Transporte de la Nación", "sag": "IGN"}, "bbox": [-66.77880747, -40.50289667, -66.77880747, -40.50289667]}, {"type": "Feature", "id": "puntos_de_transporte_ferroviario_AN070.4959", "geometry": {"type": "Point", "coordinates": [-67.04474053, -40.50614846]}, "geometry_name": "geom", "properties": {"gid": 4959, "entidad": 0, "fna": "Estación Falckner", "gna": "Estación", "nam": "Falckner", "fun": 2, "fdc": "IGN/Ministerio de Transporte de la Nación", "sag": "IGN"}, "bbox": [-67.04474053, -40.50614846, -67.04474053, -40.50614846]}, {"type": "Feature", "id": "puntos_de_transporte_ferroviario_AN070.4960", "geometry": {"type": "Point", "coordinates": [-69.72859777, -41.35240567]}, "geometry_name": "geom", "properties": {"gid": 4960, "entidad": 0, "fna": "Desvío Km 648", "gna": "Desvío", "nam": "Km 648", "fun": 2, "fdc": "IGN/Ministerio de Transporte de la Nación", "sag": "IGN"}, "bbox": [-69.72859777, -41.35240567, -69.72859777, -41.35240567]}, {"type": "Feature", "id": "puntos_de_transporte_ferroviario_AN070.4961", "geometry": {"type": "Point", "coordinates": [-69.86870819, -41.55662915]}, "geometry_name": "geom", "properties": {"gid": 4961, "entidad": 0, "fna": "Estación Ojos de Agua", "gna": "Estación", "nam": "Ojos de Agua", "fun": 6, "fdc": "IGN/Ministerio de Transporte de la Nación", "sag": "IGN"}, "bbox": [-69.86870819, -41.55662915, -69.86870819, -41.55662915]}, {"type": "Feature", "id": "puntos_de_transporte_ferroviario_AN070.4962", "geometry": {"type": "Point", "coordinates": [-70.47308358, -41.71221113]}, "geometry_name": "geom", "properties": {"gid": 4962, "entidad": 0, "fna": "Estación Cerro Mesa", "gna": "Estación", "nam": "Cerro Mesa", "fun": 6, "fdc": "IGN/Ministerio de Transporte de la Nación", "sag": "IGN"}, "bbox": [-70.47308358, -41.71221113, -70.47308358, -41.71221113]}, {"type": "Feature", "id": "puntos_de_transporte_ferroviario_AN070.4963", "geometry": {"type": "Point", "coordinates": [-70.88113187, -41.70341201]}, "geometry_name": "geom", "properties": {"gid": 4963, "entidad": 0, "fna": "Estación Fitalancao", "gna": "Estación", "nam": "Fitalancao", "fun": 2, "fdc": "IGN/Ministerio de Transporte de la Nación", "sag": "IGN"}, "bbox": [-70.88113187, -41.70341201, -70.88113187, -41.70341201]}, {"type": "Feature", "id": "puntos_de_transporte_ferroviario_AN070.4967", "geometry": {"type": "Point", "coordinates": [-64.24681278, -38.94299798]}, "geometry_name": "geom", "properties": {"gid": 4967, "entidad": 0, "fna": "Estación Coronel Eugenio del Busto", "gna": "Estación", "nam": "Coronel Eugenio del Busto", "fun": 4, "fdc": "IGN/Ministerio de Transporte de la Nación", "sag": "IGN"}, "bbox": [-64.24681278, -38.94299798, -64.24681278, -38.94299798]}, {"type": "Feature", "id": "puntos_de_transporte_ferroviario_AN070.4968", "geometry": {"type": "Point", "coordinates": [-65.08655033, -38.82427174]}, "geometry_name": "geom", "properties": {"gid": 4968, "entidad": 0, "fna": "Desvío Km 899", "gna": "Desvío", "nam": "Km 899", "fun": 2, "fdc": "IGN/Ministerio de Transporte de la Nación", "sag": "IGN"}, "bbox": [-65.08655033, -38.82427174, -65.08655033, -38.82427174]}, {"type": "Feature", "id": "puntos_de_transporte_ferroviario_AN070.4969", "geometry": {"type": "Point", "coordinates": [-65.27222969, -38.85595761]}, "geometry_name": "geom", "properties": {"gid": 4969, "entidad": 0, "fna": "Estación Fortín Uno", "gna": "Estación", "nam": "Fortín Uno", "fun": 2, "fdc": "IGN/Ministerio de Transporte de la Nación", "sag": "IGN"}, "bbox": [-65.27222969, -38.85595761, -65.27222969, -38.85595761]}, {"type": "Feature", "id": "puntos_de_transporte_ferroviario_AN070.4970", "geometry": {"type": "Point", "coordinates": [-65.39744876, -38.98160295]}, "geometry_name": "geom", "properties": {"gid": 4970, "entidad": 0, "fna": "Desvío Km 935", "gna": "Desvío", "nam": "Km 935", "fun": 2, "fdc": "IGN/Ministerio de Transporte de la Nación", "sag": "IGN"}, "bbox": [-65.39744876, -38.98160295, -65.39744876, -38.98160295]}, {"type": "Feature", "id": "puntos_de_transporte_ferroviario_AN070.4971", "geometry": {"type": "Point", "coordinates": [-65.48093045, -39.09557813]}, "geometry_name": "geom", "properties": {"gid": 4971, "entidad": 0, "fna": "Estación Benjamín Zorrilla", "gna": "Estación", "nam": "Benjamín Zorrilla", "fun": 2, "fdc": "IGN/Ministerio de Transporte de la Nación", "sag": "IGN"}, "bbox": [-65.48093045, -39.09557813, -65.48093045, -39.09557813]}, {"type": "Feature", "id": "puntos_de_transporte_ferroviario_AN070.4972", "geometry": {"type": "Point", "coordinates": [-65.58168654, -39.23212676]}, "geometry_name": "geom", "properties": {"gid": 4972, "entidad": 0, "fna": "Desvío Km 967", "gna": "Desvío", "nam": "Km 967", "fun": 2, "fdc": "IGN/Ministerio de Transporte de la Nación", "sag": "IGN"}, "bbox": [-65.58168654, -39.23212676, -65.58168654, -39.23212676]}, {"type": "Feature", "id": "puntos_de_transporte_ferroviario_AN070.4973", "geometry": {"type": "Point", "coordinates": [-65.64776293, -39.26369708]}, "geometry_name": "geom", "properties": {"gid": 4973, "entidad": 0, "fna": "Estación Choele Choel", "gna": "Estación", "nam": "Choele Choel", "fun": 2, "fdc": "IGN/Ministerio de Transporte de la Nación", "sag": "IGN"}, "bbox": [-65.64776293, -39.26369708, -65.64776293, -39.26369708]}, {"type": "Feature", "id": "puntos_de_transporte_ferroviario_AN070.4974", "geometry": {"type": "Point", "coordinates": [-66.33349088, -39.09529766]}, "geometry_name": "geom", "properties": {"gid": 4974, "entidad": 0, "fna": "Desvío Km 1040", "gna": "Desvío", "nam": "Km 1040", "fun": 2, "fdc": "IGN/Ministerio de Transporte de la Nación", "sag": "IGN"}, "bbox": [-66.33349088, -39.09529766, -66.33349088, -39.09529766]}, {"type": "Feature", "id": "puntos_de_transporte_ferroviario_AN070.4975", "geometry": {"type": "Point", "coordinates": [-67.31021771, -39.06126257]}, "geometry_name": "geom", "properties": {"gid": 4975, "entidad": 0, "fna": "Estación Mainqué", "gna": "Estación", "nam": "Mainqué", "fun": 2, "fdc": "IGN/Ministerio de Transporte de la Nación", "sag": "IGN"}, "bbox": [-67.31021771, -39.06126257, -67.31021771, -39.06126257]}, {"type": "Feature", "id": "puntos_de_transporte_ferroviario_AN070.4976", "geometry": {"type": "Point", "coordinates": [-67.39343027, -39.05077722]}, "geometry_name": "geom", "properties": {"gid": 4976, "entidad": 0, "fna": "Estación Cervantes", "gna": "Estación", "nam": "Cervantes", "fun": 2, "fdc": "IGN/Ministerio de Transporte de la Nación", "sag": "IGN"}, "bbox": [-67.39343027, -39.05077722, -67.39343027, -39.05077722]}, {"type": "Feature", "id": "puntos_de_transporte_ferroviario_AN070.4979", "geometry": {"type": "Point", "coordinates": [-63.35371707, -37.65906859]}, "geometry_name": "geom", "properties": {"gid": 4979, "entidad": 0, "fna": "Estación Avestruz", "gna": "Estación", "nam": "Avestruz", "fun": 4, "fdc": "IGN/Ministerio de Transporte de la Nación", "sag": "IGN"}, "bbox": [-63.35371707, -37.65906859, -63.35371707, -37.65906859]}, {"type": "Feature", "id": "puntos_de_transporte_ferroviario_AN070.4980", "geometry": {"type": "Point", "coordinates": [-63.19546907, -37.67443052]}, "geometry_name": "geom", "properties": {"gid": 4980, "entidad": 0, "fna": "Estación Cañada Mariano", "gna": "Estación", "nam": "Cañada Mariano", "fun": 2, "fdc": "IGN/Ministerio de Transporte de la Nación", "sag": "IGN"}, "bbox": [-63.19546907, -37.67443052, -63.19546907, -37.67443052]}, {"type": "Feature", "id": "puntos_de_transporte_ferroviario_AN070.4981", "geometry": {"type": "Point", "coordinates": [-63.2451424, -37.54747592]}, "geometry_name": "geom", "properties": {"gid": 4981, "entidad": 0, "fna": "Estación Canónigo Gorriti", "gna": "Estación", "nam": "Canónigo Gorriti", "fun": 2, "fdc": "IGN/Ministerio de Transporte de la Nación", "sag": "IGN"}, "bbox": [-63.2451424, -37.54747592, -63.2451424, -37.54747592]}, {"type": "Feature", "id": "puntos_de_transporte_ferroviario_AN070.4982", "geometry": {"type": "Point", "coordinates": [-63.25364506, -37.45508363]}, "geometry_name": "geom", "properties": {"gid": 4982, "entidad": 0, "fna": "Estación Esteban A. Gascón", "gna": "Estación", "nam": "Esteban A. Gascón", "fun": 2, "fdc": "IGN/Ministerio de Transporte de la Nación", "sag": "IGN"}, "bbox": [-63.25364506, -37.45508363, -63.25364506, -37.45508363]}, {"type": "Feature", "id": "puntos_de_transporte_ferroviario_AN070.5386", "geometry": {"type": "Point", "coordinates": [-68.05828164, -38.9558393]}, "geometry_name": "geom", "properties": {"gid": 5386, "entidad": 0, "fna": "Estación Neuquén", "gna": "Estación", "nam": "Neuquén", "fun": 6, "fdc": "Esri-World Imagery 2010/IGN04/IGN Dirección de Geografía/Ministerio de Transporte de la Nación", "sag": "IGN"}, "bbox": [-68.05828164, -38.9558393, -68.05828164, -38.9558393]}, {"type": "Feature", "id": "puntos_de_transporte_ferroviario_AN070.5387", "geometry": {"type": "Point", "coordinates": [-68.23301848, -38.955311]}, "geometry_name": "geom", "properties": {"gid": 5387, "entidad": 0, "fna": "Estación Plottier", "gna": "Estación", "nam": "Plottier", "fun": 6, "fdc": "Esri-World Imagery 2010/IGN04/IGN Dirección de Geografía/Ministerio de Transporte de la Nación", "sag": "IGN"}, "bbox": [-68.23301848, -38.955311, -68.23301848, -38.955311]}, {"type": "Feature", "id": "puntos_de_transporte_ferroviario_AN070.5388", "geometry": {"type": "Point", "coordinates": [-68.96308407, -38.970091]}, "geometry_name": "geom", "properties": {"gid": 5388, "entidad": 0, "fna": "Estación Challacó", "gna": "Estación", "nam": "Challacó", "fun": 2, "fdc": "IGN01/Ministerio de Transporte de la Nación/Dir. Geografía IGN", "sag": "IGN"}, "bbox": [-68.96308407, -38.970091, -68.96308407, -38.970091]}, {"type": "Feature", "id": "puntos_de_transporte_ferroviario_AN070.5389", "geometry": {"type": "Point", "coordinates": [-68.16089418, -38.95559114]}, "geometry_name": "geom", "properties": {"gid": 5389, "entidad": 0, "fna": "Estación Neuquén Cargas", "gna": "Estación", "nam": "Neuquén Cargas", "fun": 6, "fdc": "Esri-World Imagery 2010/IGN04/IGN Dirección de Geografía/Ministerio de Transporte de la Nación", "sag": "IGN"}, "bbox": [-68.16089418, -38.95559114, -68.16089418, -38.95559114]}, {"type": "Feature", "id": "puntos_de_transporte_ferroviario_AN070.5390", "geometry": {"type": "Point", "coordinates": [-68.06493861, -38.82677179]}, "geometry_name": "geom", "properties": {"gid": 5390, "entidad": 0, "fna": "Estación Cinco Saltos", "gna": "Estación", "nam": "Cinco Saltos", "fun": 2, "fdc": "Esri-World Imagery 2010/IGN04/IGN Dirección de Geografía/Ministerio de Transporte de la Nación", "sag": "IGN"}, "bbox": [-68.06493861, -38.82677179, -68.06493861, -38.82677179]}, {"type": "Feature", "id": "puntos_de_transporte_ferroviario_AN070.5391", "geometry": {"type": "Point", "coordinates": [-68.10132966, -38.75662418]}, "geometry_name": "geom", "properties": {"gid": 5391, "entidad": 0, "fna": "Estación Contralmirante Cordero", "gna": "Estación", "nam": "Contralmirante Cordero", "fun": 4, "fdc": "Esri-World Imagery 2010/IGN04/IGN Dirección de Geografía/Ministerio de Transporte de la Nación", "sag": "IGN"}, "bbox": [-68.10132966, -38.75662418, -68.10132966, -38.75662418]}, {"type": "Feature", "id": "puntos_de_transporte_ferroviario_AN070.5392", "geometry": {"type": "Point", "coordinates": [-68.42729995, -39.00789756]}, "geometry_name": "geom", "properties": {"gid": 5392, "entidad": 0, "fna": "Estación Senillosa", "gna": "Estación", "nam": "Senillosa", "fun": 6, "fdc": "Esri-world_imagery-2010/IGN01/Ministerio de Transporte", "sag": "IGN"}, "bbox": [-68.42729995, -39.00789756, -68.42729995, -39.00789756]}, {"type": "Feature", "id": "puntos_de_transporte_ferroviario_AN070.5393", "geometry": {"type": "Point", "coordinates": [-70.72125691, -41.12485627]}, "geometry_name": "geom", "properties": {"gid": 5393, "entidad": 0, "fna": "Estación Pilcaniyeu", "gna": "Estación", "nam": "Pilcaniyeu", "fun": 6, "fdc": "IGN04/Tren Patagónico", "sag": "IGN"}, "bbox": [-70.72125691, -41.12485627, -70.72125691, -41.12485627]}, {"type": "Feature", "id": "puntos_de_transporte_ferroviario_AN070.5394", "geometry": {"type": "Point", "coordinates": [-67.99644569, -38.94182943]}, "geometry_name": "geom", "properties": {"gid": 5394, "entidad": 0, "fna": "Estación Cipolletti", "gna": "Estación", "nam": "Cipolletti", "fun": 6, "fdc": "IGN04/Trenes Argentinos", "sag": "IGN"}, "bbox": [-67.99644569, -38.94182943, -67.99644569, -38.94182943]}, {"type": "Feature", "id": "puntos_de_transporte_ferroviario_AN070.5395", "geometry": {"type": "Point", "coordinates": [-67.82560497, -38.97672051]}, "geometry_name": "geom", "properties": {"gid": 5395, "entidad": 0, "fna": "Estación Allen", "gna": "Estación", "nam": "Allen", "fun": 6, "fdc": "IGN04/Ferrosur", "sag": "IGN"}, "bbox": [-67.82560497, -38.97672051, -67.82560497, -38.97672051]}, {"type": "Feature", "id": "puntos_de_transporte_ferroviario_AN070.5396", "geometry": {"type": "Point", "coordinates": [-70.83760066, -41.13137379]}, "geometry_name": "geom", "properties": {"gid": 5396, "entidad": 0, "fna": "Apeadero Pichi Leufú", "gna": "Apeadero", "nam": "Pichi Leufú", "fun": 2, "fdc": "IGN04/Ministerio de Transporte de la Nación/Open Street View", "sag": "IGN"}, "bbox": [-70.83760066, -41.13137379, -70.83760066, -41.13137379]}, {"type": "Feature", "id": "puntos_de_transporte_ferroviario_AN070.5397", "geometry": {"type": "Point", "coordinates": [-67.7303436, -39.00521023]}, "geometry_name": "geom", "properties": {"gid": 5397, "entidad": 0, "fna": "Estación Conte Martín Guerrico", "gna": "Estación", "nam": "Conte Martín Guerrico", "fun": 4, "fdc": "IGN04/Ministerio de Transporte de la Nación", "sag": "IGN"}, "bbox": [-67.7303436, -39.00521023, -67.7303436, -39.00521023]}, {"type": "Feature", "id": "puntos_de_transporte_ferroviario_AN070.5398", "geometry": {"type": "Point", "coordinates": [-67.63927824, -39.02179965]}, "geometry_name": "geom", "properties": {"gid": 5398, "entidad": 0, "fna": "Estación Coronel Juan J. Gómez", "gna": "Estación", "nam": "Coronel Juan J. Gómez", "fun": 2, "fdc": "IGN04/Ministerio de Transporte de la Nación", "sag": "IGN"}, "bbox": [-67.63927824, -39.02179965, -67.63927824, -39.02179965]}, {"type": "Feature", "id": "puntos_de_transporte_ferroviario_AN070.5399", "geometry": {"type": "Point", "coordinates": [-67.53875674, -39.03447674]}, "geometry_name": "geom", "properties": {"gid": 5399, "entidad": 0, "fna": "Estación Padre A. Stefenelli", "gna": "Estación", "nam": "Padre A. Stefenelli", "fun": 6, "fdc": "IGN04/Ferrosur", "sag": "IGN"}, "bbox": [-67.53875674, -39.03447674, -67.53875674, -39.03447674]}, {"type": "Feature", "id": "puntos_de_transporte_ferroviario_AN070.5400", "geometry": {"type": "Point", "coordinates": [-67.57797338, -39.02930628]}, "geometry_name": "geom", "properties": {"gid": 5400, "entidad": 0, "fna": "Estación General Roca", "gna": "Estación", "nam": "General Roca", "fun": 2, "fdc": "IGN04/Ministerio de Transporte de la Nación", "sag": "IGN"}, "bbox": [-67.57797338, -39.02930628, -67.57797338, -39.02930628]}, {"type": "Feature", "id": "puntos_de_transporte_ferroviario_AN070.5401", "geometry": {"type": "Point", "coordinates": [-70.06188421, -38.90614243]}, "geometry_name": "geom", "properties": {"gid": 5401, "entidad": 0, "fna": "Estación Zapala", "gna": "Estación", "nam": "Zapala", "fun": 6, "fdc": "Esri-World_imagery/IGN01//Ministerio de Transporte de la Nación/IGN Dirección de Geografía", "sag": "IGN"}, "bbox": [-70.06188421, -38.90614243, -70.06188421, -38.90614243]}, {"type": "Feature", "id": "puntos_de_transporte_ferroviario_AN070.5402", "geometry": {"type": "Point", "coordinates": [-69.23314511, -38.92999863]}, "geometry_name": "geom", "properties": {"gid": 5402, "entidad": 0, "fna": "Estación Cutral Có", "gna": "Estación", "nam": "Cutral Có", "fun": 2, "fdc": "Esri-world_imagery-2010/IGN01", "sag": "IGN"}, "bbox": [-69.23314511, -38.92999863, -69.23314511, -38.92999863]}, {"type": "Feature", "id": "puntos_de_transporte_ferroviario_AN070.5403", "geometry": {"type": "Point", "coordinates": [-69.20056451, -38.93004355]}, "geometry_name": "geom", "properties": {"gid": 5403, "entidad": 0, "fna": "Estación Plaza Huincul", "gna": "Estación", "nam": "Plaza Huincul", "fun": 6, "fdc": "Esri-world_imagery-2010/IGN01", "sag": "IGN"}, "bbox": [-69.20056451, -38.93004355, -69.20056451, -38.93004355]}, {"type": "Feature", "id": "puntos_de_transporte_ferroviario_AN070.5404", "geometry": {"type": "Point", "coordinates": [-69.74397192, -38.86605615]}, "geometry_name": "geom", "properties": {"gid": 5404, "entidad": 0, "fna": "Estación Ramón M. Castro", "gna": "Estación", "nam": "Ramón M. Castro", "fun": 2, "fdc": "Esri-World_imagery/IGN01/Ministerio de Transporte de la Nación/Dir. Geografía IGN", "sag": "IGN"}, "bbox": [-69.74397192, -38.86605615, -69.74397192, -38.86605615]}, {"type": "Feature", "id": "puntos_de_transporte_ferroviario_AN070.5405", "geometry": {"type": "Point", "coordinates": [-71.01209499, -41.06142386]}, "geometry_name": "geom", "properties": {"gid": 5405, "entidad": 0, "fna": "Estación Perito Moreno", "gna": "Estación", "nam": "Perito Moreno", "fun": 6, "fdc": "Imagery/Ministerio de Transporte de la Nación/Dir. Geografía IGN", "sag": "IGN"}, "bbox": [-71.01209499, -41.06142386, -71.01209499, -41.06142386]}, {"type": "Feature", "id": "puntos_de_transporte_ferroviario_AN070.5406", "geometry": {"type": "Point", "coordinates": [-71.13883517, -41.09828701]}, "geometry_name": "geom", "properties": {"gid": 5406, "entidad": 0, "fna": "Estación Ñirihuau", "gna": "Estación", "nam": "Ñirihuau", "fun": 6, "fdc": "Imagery/Ministerio de Transporte de la Nación/Dir. Geografía IGN", "sag": "IGN"}, "bbox": [-71.13883517, -41.09828701, -71.13883517, -41.09828701]}, {"type": "Feature", "id": "puntos_de_transporte_ferroviario_AN070.5407", "geometry": {"type": "Point", "coordinates": [-71.27412402, -41.13043033]}, "geometry_name": "geom", "properties": {"gid": 5407, "entidad": 0, "fna": "Estación San Carlos de Bariloche", "gna": "Estación", "nam": "San Carlos de Bariloche", "fun": 6, "fdc": "Imagery/Ministerio de Transporte de la Nación/Dir. Geografía IGN", "sag": "IGN"}, "bbox": [-71.27412402, -41.13043033, -71.27412402, -41.13043033]}, {"type": "Feature", "id": "puntos_de_transporte_ferroviario_AN070.5408", "geometry": {"type": "Point", "coordinates": [-68.28915553, -38.95513273]}, "geometry_name": "geom", "properties": {"gid": 5408, "entidad": 0, "fna": "Parada Colonización", "gna": "Parada", "nam": "Colonización", "fun": 6, "fdc": "IGN01", "sag": "IGN"}, "bbox": [-68.28915553, -38.95513273, -68.28915553, -38.95513273]}, {"type": "Feature", "id": "puntos_de_transporte_ferroviario_AN070.2737", "geometry": {"type": "Point", "coordinates": [-64.93718562, -38.83140501]}, "geometry_name": "geom", "properties": {"gid": 2737, "entidad": 0, "fna": "Estación Pichi Mahuida", "gna": "Estación", "nam": "Pichi Mahuida", "fun": 2, "fdc": "IGN/Ministerio de Transporte de la Nación", "sag": "IGN"}, "bbox": [-64.93718562, -38.83140501, -64.93718562, -38.83140501]}, {"type": "Feature", "id": "puntos_de_transporte_ferroviario_AN070.2738", "geometry": {"type": "Point", "coordinates": [-65.74104443, -39.20574194]}, "geometry_name": "geom", "properties": {"gid": 2738, "entidad": 0, "fna": "Estación Darwin", "gna": "Estación", "nam": "Darwin", "fun": 6, "fdc": "IGN/Ferrosur", "sag": "IGN"}, "bbox": [-65.74104443, -39.20574194, -65.74104443, -39.20574194]}, {"type": "Feature", "id": "puntos_de_transporte_ferroviario_AN070.2739", "geometry": {"type": "Point", "coordinates": [-67.23690388, -39.07024336]}, "geometry_name": "geom", "properties": {"gid": 2739, "entidad": 0, "fna": "Estación Ingeniero Luis A. Huergo", "gna": "Estación", "nam": "Ingeniero Luis A. Huergo", "fun": 2, "fdc": "IGN/Ministerio de Transporte de la Nación", "sag": "IGN"}, "bbox": [-67.23690388, -39.07024336, -67.23690388, -39.07024336]}, {"type": "Feature", "id": "puntos_de_transporte_ferroviario_AN070.2740", "geometry": {"type": "Point", "coordinates": [-67.15546463, -39.08225515]}, "geometry_name": "geom", "properties": {"gid": 2740, "entidad": 0, "fna": "Estación General E. Godoy", "gna": "Estación", "nam": "General E. Godoy", "fun": 2, "fdc": "IGN/Ministerio de Transporte de la Nación", "sag": "IGN"}, "bbox": [-67.15546463, -39.08225515, -67.15546463, -39.08225515]}, {"type": "Feature", "id": "puntos_de_transporte_ferroviario_AN070.2741", "geometry": {"type": "Point", "coordinates": [-66.94298614, -39.11656884]}, "geometry_name": "geom", "properties": {"gid": 2741, "entidad": 0, "fna": "Estación Chichinales", "gna": "Estación", "nam": "Chichinales", "fun": 2, "fdc": "IGN/Ministerio de Transporte de la Nación", "sag": "IGN"}, "bbox": [-66.94298614, -39.11656884, -66.94298614, -39.11656884]}, {"type": "Feature", "id": "puntos_de_transporte_ferroviario_AN070.2742", "geometry": {"type": "Point", "coordinates": [-66.52033912, -39.0882098]}, "geometry_name": "geom", "properties": {"gid": 2742, "entidad": 0, "fna": "Estación Chelforó", "gna": "Estación", "nam": "Chelforó", "fun": 2, "fdc": "IGN/Ministerio de Transporte de la Nación", "sag": "IGN"}, "bbox": [-66.52033912, -39.0882098, -66.52033912, -39.0882098]}, {"type": "Feature", "id": "puntos_de_transporte_ferroviario_AN070.2743", "geometry": {"type": "Point", "coordinates": [-66.14525684, -39.16724847]}, "geometry_name": "geom", "properties": {"gid": 2743, "entidad": 0, "fna": "Estación Chimpay", "gna": "Estación", "nam": "Chimpay", "fun": 2, "fdc": "IGN/Ministerio de Transporte de la Nación", "sag": "IGN"}, "bbox": [-66.14525684, -39.16724847, -66.14525684, -39.16724847]}, {"type": "Feature", "id": "puntos_de_transporte_ferroviario_AN070.2744", "geometry": {"type": "Point", "coordinates": [-63.87154731, -40.79788211]}, "geometry_name": "geom", "properties": {"gid": 2744, "entidad": 0, "fna": "Estación Vicealmirante Eduardo O'Connor", "gna": "Estación", "nam": "Vicealmirante Eduardo O'Connor", "fun": 6, "fdc": "IGN/Tren Patagónico", "sag": "IGN"}, "bbox": [-63.87154731, -40.79788211, -63.87154731, -40.79788211]}, {"type": "Feature", "id": "puntos_de_transporte_ferroviario_AN070.2745", "geometry": {"type": "Point", "coordinates": [-65.84401786, -40.84630318]}, "geometry_name": "geom", "properties": {"gid": 2745, "entidad": 0, "fna": "Estación Aguada Cecilio", "gna": "Estación", "nam": "Aguada Cecilio", "fun": 2, "fdc": "IGN/Ministerio de Transporte de la Nación", "sag": "IGN"}, "bbox": [-65.84401786, -40.84630318, -65.84401786, -40.84630318]}, {"type": "Feature", "id": "puntos_de_transporte_ferroviario_AN070.2746", "geometry": {"type": "Point", "coordinates": [-64.94385123, -40.73327029]}, "geometry_name": "geom", "properties": {"gid": 2746, "entidad": 0, "fna": "Estación San Antonio Oeste", "gna": "Estación", "nam": "San Antonio Oeste", "fun": 6, "fdc": "IGN/Tren Patagónico", "sag": "IGN"}, "bbox": [-64.94385123, -40.73327029, -64.94385123, -40.73327029]}, {"type": "Feature", "id": "puntos_de_transporte_ferroviario_AN070.2747", "geometry": {"type": "Point", "coordinates": [-66.14482848, -40.68864185]}, "geometry_name": "geom", "properties": {"gid": 2747, "entidad": 0, "fna": "Estación Valcheta", "gna": "Estación", "nam": "Valcheta", "fun": 6, "fdc": "IGN/Tren Patagónico", "sag": "IGN"}, "bbox": [-66.14482848, -40.68864185, -66.14482848, -40.68864185]}, {"type": "Feature", "id": "puntos_de_transporte_ferroviario_AN070.2748", "geometry": {"type": "Point", "coordinates": [-67.26483854, -40.50837145]}, "geometry_name": "geom", "properties": {"gid": 2748, "entidad": 0, "fna": "Estación Ministro Ramos Mexía", "gna": "Estación", "nam": "Ministro Ramos Mexía", "fun": 6, "fdc": "IGN/Tren Patagónico", "sag": "IGN"}, "bbox": [-67.26483854, -40.50837145, -67.26483854, -40.50837145]}, {"type": "Feature", "id": "puntos_de_transporte_ferroviario_AN070.2749", "geometry": {"type": "Point", "coordinates": [-67.75439042, -40.58906403]}, "geometry_name": "geom", "properties": {"gid": 2749, "entidad": 0, "fna": "Estación Sierra Colorada", "gna": "Estación", "nam": "Sierra Colorada", "fun": 6, "fdc": "IGN/Tren Patagónico", "sag": "IGN"}, "bbox": [-67.75439042, -40.58906403, -67.75439042, -40.58906403]}, {"type": "Feature", "id": "puntos_de_transporte_ferroviario_AN070.2750", "geometry": {"type": "Point", "coordinates": [-68.09037606, -40.84619211]}, "geometry_name": "geom", "properties": {"gid": 2750, "entidad": 0, "fna": "Estación Los Menucos", "gna": "Estación", "nam": "Los Menucos", "fun": 6, "fdc": "IGN/Tren Patagónico", "sag": "IGN"}, "bbox": [-68.09037606, -40.84619211, -68.09037606, -40.84619211]}, {"type": "Feature", "id": "puntos_de_transporte_ferroviario_AN070.2751", "geometry": {"type": "Point", "coordinates": [-66.56679001, -40.50541521]}, "geometry_name": "geom", "properties": {"gid": 2751, "entidad": 0, "fna": "Estación Nahuel Niyeu", "gna": "Estación", "nam": "Nahuel Niyeu", "fun": 2, "fdc": "IGN/Ministerio de Transporte de la Nación", "sag": "IGN"}, "bbox": [-66.56679001, -40.50541521, -66.56679001, -40.50541521]}, {"type": "Feature", "id": "puntos_de_transporte_ferroviario_AN070.2752", "geometry": {"type": "Point", "coordinates": [-62.98091309, -40.83742804]}, "geometry_name": "geom", "properties": {"gid": 2752, "entidad": 0, "fna": "Estación Viedma", "gna": "Estación", "nam": "Viedma", "fun": 6, "fdc": "IGN/Tren Patagónico", "sag": "IGN"}, "bbox": [-62.98091309, -40.83742804, -62.98091309, -40.83742804]}, {"type": "Feature", "id": "puntos_de_transporte_ferroviario_AN070.2753", "geometry": {"type": "Point", "coordinates": [-70.9079625, -41.88387533]}, "geometry_name": "geom", "properties": {"gid": 2753, "entidad": 0, "fna": "Estación Ñorquinco", "gna": "Estación", "nam": "Ñorquinco", "fun": 2, "fdc": "IGN/Ministerio de Transporte de la Nación", "sag": "IGN"}, "bbox": [-70.9079625, -41.88387533, -70.9079625, -41.88387533]}, {"type": "Feature", "id": "puntos_de_transporte_ferroviario_AN070.2754", "geometry": {"type": "Point", "coordinates": [-70.26359804, -41.03228693]}, "geometry_name": "geom", "properties": {"gid": 2754, "entidad": 0, "fna": "Estación Comallo", "gna": "Estación", "nam": "Comallo", "fun": 6, "fdc": "IGN/Tren Patagónico", "sag": "IGN"}, "bbox": [-70.26359804, -41.03228693, -70.26359804, -41.03228693]}, {"type": "Feature", "id": "puntos_de_transporte_ferroviario_AN070.2755", "geometry": {"type": "Point", "coordinates": [-69.54669831, -41.32922518]}, "geometry_name": "geom", "properties": {"gid": 2755, "entidad": 0, "fna": "Estación Ingeniero Jacobacci", "gna": "Estación", "nam": "Ingeniero Jacobacci", "fun": 6, "fdc": "IGN/Tren Patagónico", "sag": "IGN"}, "bbox": [-69.54669831, -41.32922518, -69.54669831, -41.32922518]}, {"type": "Feature", "id": "puntos_de_transporte_ferroviario_AN070.3121", "geometry": {"type": "Point", "coordinates": [-63.03710494, -37.80391593]}, "geometry_name": "geom", "properties": {"gid": 3121, "entidad": 0, "fna": "Estación Bordenave", "gna": "Estación", "nam": "Bordenave", "fun": 6, "fdc": "IGN/Ministerio de Transporte de la Nación", "sag": "IGN"}, "bbox": [-63.03710494, -37.80391593, -63.03710494, -37.80391593]}, {"type": "Feature", "id": "puntos_de_transporte_ferroviario_AN070.3122", "geometry": {"type": "Point", "coordinates": [-63.15897523, -37.68671142]}, "geometry_name": "geom", "properties": {"gid": 3122, "entidad": 0, "fna": "Estación Darregueira", "gna": "Estación", "nam": "Darregueira", "fun": 6, "fdc": "IGN/Ministerio de Transporte de la Nación", "sag": "IGN"}, "bbox": [-63.15897523, -37.68671142, -63.15897523, -37.68671142]}, {"type": "Feature", "id": "puntos_de_transporte_ferroviario_AN070.3149", "geometry": {"type": "Point", "coordinates": [-62.80315394, -37.39465387]}, "geometry_name": "geom", "properties": {"gid": 3149, "entidad": 0, "fna": "Estación Erize", "gna": "Estación", "nam": "Erize", "fun": 6, "fdc": "IGN/Ministerio de Transporte de la Nación", "sag": "IGN"}, "bbox": [-62.80315394, -37.39465387, -62.80315394, -37.39465387]}, {"type": "Feature", "id": "puntos_de_transporte_ferroviario_AN070.3150", "geometry": {"type": "Point", "coordinates": [-62.60522831, -37.71825087]}, "geometry_name": "geom", "properties": {"gid": 3150, "entidad": 0, "fna": "Estación Goyena", "gna": "Estación", "nam": "Goyena", "fun": 6, "fdc": "IGN/Ministerio de Transporte de la Nación", "sag": "IGN"}, "bbox": [-62.60522831, -37.71825087, -62.60522831, -37.71825087]}, {"type": "Feature", "id": "puntos_de_transporte_ferroviario_AN070.3162", "geometry": {"type": "Point", "coordinates": [-62.91105495, -38.11091328]}, "geometry_name": "geom", "properties": {"gid": 3162, "entidad": 0, "fna": "Estación Estela", "gna": "Estación", "nam": "Estela", "fun": 4, "fdc": "IGN/Ministerio de Transporte de la Nación", "sag": "IGN"}, "bbox": [-62.91105495, -38.11091328, -62.91105495, -38.11091328]}, {"type": "Feature", "id": "puntos_de_transporte_ferroviario_AN070.3179", "geometry": {"type": "Point", "coordinates": [-62.6156, -40.07131029]}, "geometry_name": "geom", "properties": {"gid": 3179, "entidad": 0, "fna": "Estación Emilio Lamarca", "gna": "Estación", "nam": "Emilio Lamarca", "fun": 2, "fdc": "IGN/Ministerio de Transporte de la Nación", "sag": "IGN"}, "bbox": [-62.6156, -40.07131029, -62.6156, -40.07131029]}, {"type": "Feature", "id": "puntos_de_transporte_ferroviario_AN070.3180", "geometry": {"type": "Point", "coordinates": [-62.61631409, -40.18639622]}, "geometry_name": "geom", "properties": {"gid": 3180, "entidad": 0, "fna": "Estación Stroeder", "gna": "Estación", "nam": "Stroeder", "fun": 2, "fdc": "IGN/Ministerio de Transporte de la Nación", "sag": "IGN"}, "bbox": [-62.61631409, -40.18639622, -62.61631409, -40.18639622]}, {"type": "Feature", "id": "puntos_de_transporte_ferroviario_AN070.3181", "geometry": {"type": "Point", "coordinates": [-63.14282245, -38.89174435]}, "geometry_name": "geom", "properties": {"gid": 3181, "entidad": 0, "fna": "Estación Algarrobo", "gna": "Estación", "nam": "Algarrobo", "fun": 6, "fdc": "IGN/Ministerio de Transporte de la Nación", "sag": "IGN"}, "bbox": [-63.14282245, -38.89174435, -63.14282245, -38.89174435]}, {"type": "Feature", "id": "puntos_de_transporte_ferroviario_AN070.3496", "geometry": {"type": "Point", "coordinates": [-71.16587967, -42.05488851]}, "geometry_name": "geom", "properties": {"gid": 3496, "entidad": 0, "fna": "Estación El Maitén", "gna": "Estación", "nam": "El Maitén", "fun": 6, "fdc": "IGN/Sitio Web La Trochita", "sag": "IGN"}, "bbox": [-71.16587967, -42.05488851, -71.16587967, -42.05488851]}, {"type": "Feature", "id": "puntos_de_transporte_ferroviario_AN070.3575", "geometry": {"type": "Point", "coordinates": [-64.40169128, -37.44522648]}, "geometry_name": "geom", "properties": {"gid": 3575, "entidad": 0, "fna": "Estación Gamay", "gna": "Estación", "nam": "Gamay", "fun": 2, "fdc": "IGN/Ministerio de Transporte de la Nación", "sag": "IGN"}, "bbox": [-64.40169128, -37.44522648, -64.40169128, -37.44522648]}, {"type": "Feature", "id": "puntos_de_transporte_ferroviario_AN070.3576", "geometry": {"type": "Point", "coordinates": [-64.35252388, -37.54461137]}, "geometry_name": "geom", "properties": {"gid": 3576, "entidad": 0, "fna": "Estación Unanué", "gna": "Estación", "nam": "Unanué", "fun": 2, "fdc": "IGN/Ministerio de Transporte de la Nación", "sag": "IGN"}, "bbox": [-64.35252388, -37.54461137, -64.35252388, -37.54461137]}, {"type": "Feature", "id": "puntos_de_transporte_ferroviario_AN070.3577", "geometry": {"type": "Point", "coordinates": [-63.60653519, -37.98178491]}, "geometry_name": "geom", "properties": {"gid": 3577, "entidad": 0, "fna": "Estación General San Martín", "gna": "Estación", "nam": "General San Martín", "fun": 2, "fdc": "IGN/Ministerio de Transporte de la Nación", "sag": "IGN"}, "bbox": [-63.60653519, -37.98178491, -63.60653519, -37.98178491]}, {"type": "Feature", "id": "puntos_de_transporte_ferroviario_AN070.3578", "geometry": {"type": "Point", "coordinates": [-63.7427479, -37.90746965]}, "geometry_name": "geom", "properties": {"gid": 3578, "entidad": 0, "fna": "Estación Bernasconi", "gna": "Estación", "nam": "Bernasconi", "fun": 2, "fdc": "IGN/Ministerio de Transporte de la Nación", "sag": "IGN"}, "bbox": [-63.7427479, -37.90746965, -63.7427479, -37.90746965]}, {"type": "Feature", "id": "puntos_de_transporte_ferroviario_AN070.3579", "geometry": {"type": "Point", "coordinates": [-63.84872257, -37.8948167]}, "geometry_name": "geom", "properties": {"gid": 3579, "entidad": 0, "fna": "Estación Abramo", "gna": "Estación", "nam": "Abramo", "fun": 2, "fdc": "IGN/Ministerio de Transporte de la Nación", "sag": "IGN"}, "bbox": [-63.84872257, -37.8948167, -63.84872257, -37.8948167]}, {"type": "Feature", "id": "puntos_de_transporte_ferroviario_AN070.3580", "geometry": {"type": "Point", "coordinates": [-63.68206346, -37.6248185]}, "geometry_name": "geom", "properties": {"gid": 3580, "entidad": 0, "fna": "Estación Remecó", "gna": "Estación", "nam": "Remecó", "fun": 2, "fdc": "IGN/Ministerio de Transporte de la Nación", "sag": "IGN"}, "bbox": [-63.68206346, -37.6248185, -63.68206346, -37.6248185]}, {"type": "Feature", "id": "puntos_de_transporte_ferroviario_AN070.3581", "geometry": {"type": "Point", "coordinates": [-63.85529471, -38.96901482]}, "geometry_name": "geom", "properties": {"gid": 3581, "entidad": 0, "fna": "Estación Anzoátegui", "gna": "Estación", "nam": "Anzoátegui", "fun": 2, "fdc": "IGN/Ministerio de Transporte de la Nación", "sag": "IGN"}, "bbox": [-63.85529471, -38.96901482, -63.85529471, -38.96901482]}, {"type": "Feature", "id": "puntos_de_transporte_ferroviario_AN070.3582", "geometry": {"type": "Point", "coordinates": [-63.63776467, -38.94357262]}, "geometry_name": "geom", "properties": {"gid": 3582, "entidad": 0, "fna": "Estación Gaviotas", "gna": "Estación", "nam": "Gaviotas", "fun": 2, "fdc": "IGN/Ministerio de Transporte de la Nación", "sag": "IGN"}, "bbox": [-63.63776467, -38.94357262, -63.63776467, -38.94357262]}, {"type": "Feature", "id": "puntos_de_transporte_ferroviario_AN070.3583", "geometry": {"type": "Point", "coordinates": [-63.43149037, -38.08497778]}, "geometry_name": "geom", "properties": {"gid": 3583, "entidad": 0, "fna": "Estación Jacinto Aráuz", "gna": "Estación", "nam": "Jacinto Aráuz", "fun": 2, "fdc": "IGN/Ministerio de Transporte de la Nación", "sag": "IGN"}, "bbox": [-63.43149037, -38.08497778, -63.43149037, -38.08497778]}, {"type": "Feature", "id": "puntos_de_transporte_ferroviario_AN070.3619", "geometry": {"type": "Point", "coordinates": [-64.09590842, -38.99500246]}, "geometry_name": "geom", "properties": {"gid": 3619, "entidad": 0, "fna": "Estación Río Colorado", "gna": "Estación", "nam": "Río Colorado", "fun": 6, "fdc": "IGN/Ferrosur", "sag": "IGN"}, "bbox": [-64.09590842, -38.99500246, -64.09590842, -38.99500246]}, {"type": "Feature", "id": "puntos_de_transporte_ferroviario_AN070.3719", "geometry": {"type": "Point", "coordinates": [-70.67316714, -41.7238934]}, "geometry_name": "geom", "properties": {"gid": 3719, "entidad": 0, "fna": "Estación Chacay Huarruca", "gna": "Estación", "nam": "Chacay Huarruca", "fun": 2, "fdc": "IGN/Ministerio de Transporte de la Nación", "sag": "IGN"}, "bbox": [-70.67316714, -41.7238934, -70.67316714, -41.7238934]}, {"type": "Feature", "id": "puntos_de_transporte_ferroviario_AN070.3799", "geometry": {"type": "Point", "coordinates": [-62.75200317, -40.65236918]}, "geometry_name": "geom", "properties": {"gid": 3799, "entidad": 0, "fna": "Estación Caderal Cagliero", "gna": "Estación", "nam": "Caderal Cagliero", "fun": 2, "fdc": "IGN/Ministerio de Transporte de la Nación", "sag": "IGN"}, "bbox": [-62.75200317, -40.65236918, -62.75200317, -40.65236918]}, {"type": "Feature", "id": "puntos_de_transporte_ferroviario_AN070.3800", "geometry": {"type": "Point", "coordinates": [-62.54358892, -40.43466393]}, "geometry_name": "geom", "properties": {"gid": 3800, "entidad": 0, "fna": "Estación José B. Casas", "gna": "Estación", "nam": "José B. Casas", "fun": 2, "fdc": "IGN/Ministerio de Transporte de la Nación", "sag": "IGN"}, "bbox": [-62.54358892, -40.43466393, -62.54358892, -40.43466393]}, {"type": "Feature", "id": "puntos_de_transporte_ferroviario_AN070.3801", "geometry": {"type": "Point", "coordinates": [-62.64957031, -39.59884242]}, "geometry_name": "geom", "properties": {"gid": 3801, "entidad": 0, "fna": "Estación Juan A. Pradere", "gna": "Estación", "nam": "Juan A. Pradere", "fun": 2, "fdc": "IGN/Ministerio de Transporte de la Nación", "sag": "IGN"}, "bbox": [-62.64957031, -39.59884242, -62.64957031, -39.59884242]}, {"type": "Feature", "id": "puntos_de_transporte_ferroviario_AN070.3802", "geometry": {"type": "Point", "coordinates": [-62.68843962, -39.50303286]}, "geometry_name": "geom", "properties": {"gid": 3802, "entidad": 0, "fna": "Estación Pedro Luro", "gna": "Estación", "nam": "Pedro Luro", "fun": 2, "fdc": "IGN/Ministerio de Transporte de la Nación", "sag": "IGN"}, "bbox": [-62.68843962, -39.50303286, -62.68843962, -39.50303286]}, {"type": "Feature", "id": "puntos_de_transporte_ferroviario_AN070.3803", "geometry": {"type": "Point", "coordinates": [-62.65174542, -39.37534471]}, "geometry_name": "geom", "properties": {"gid": 3803, "entidad": 0, "fna": "Estación Hilario Ascasubi", "gna": "Estación", "nam": "Hilario Ascasubi", "fun": 2, "fdc": "IGN/Ministerio de Transporte de la Nación", "sag": "IGN"}, "bbox": [-62.65174542, -39.37534471, -62.65174542, -39.37534471]}, {"type": "Feature", "id": "puntos_de_transporte_ferroviario_AN070.3804", "geometry": {"type": "Point", "coordinates": [-62.61139993, -39.2606307]}, "geometry_name": "geom", "properties": {"gid": 3804, "entidad": 0, "fna": "Estación Mayor Buratovich", "gna": "Estación", "nam": "Mayor Buratovich", "fun": 2, "fdc": "IGN/Ministerio de Transporte de la Nación", "sag": "IGN"}, "bbox": [-62.61139993, -39.2606307, -62.61139993, -39.2606307]}, {"type": "Feature", "id": "puntos_de_transporte_ferroviario_AN070.3846", "geometry": {"type": "Point", "coordinates": [-64.59617651, -37.37377384]}, "geometry_name": "geom", "properties": {"gid": 3846, "entidad": 0, "fna": "Estación General Acha", "gna": "Estación", "nam": "General Acha", "fun": 2, "fdc": "IGN/Ministerio de Transporte de la Nación", "sag": "IGN"}, "bbox": [-64.59617651, -37.37377384, -64.59617651, -37.37377384]}, {"type": "Feature", "id": "puntos_de_transporte_ferroviario_AN070.3854", "geometry": {"type": "Point", "coordinates": [-64.30886259, -37.58703684]}, "geometry_name": "geom", "properties": {"gid": 3854, "entidad": 0, "fna": "Estación Epu Pel", "gna": "Estación", "nam": "Epu Pel", "fun": 2, "fdc": "IGN/Ministerio de Transporte de la Nación", "sag": "IGN"}, "bbox": [-64.30886259, -37.58703684, -64.30886259, -37.58703684]}, {"type": "Feature", "id": "puntos_de_transporte_ferroviario_AN070.3855", "geometry": {"type": "Point", "coordinates": [-64.06141997, -37.72586334]}, "geometry_name": "geom", "properties": {"gid": 3855, "entidad": 0, "fna": "Estación Cotita", "gna": "Estación", "nam": "Cotita", "fun": 2, "fdc": "IGN/Ministerio de Transporte de la Nación", "sag": "IGN"}, "bbox": [-64.06141997, -37.72586334, -64.06141997, -37.72586334]}, {"type": "Feature", "id": "puntos_de_transporte_ferroviario_AN070.3867", "geometry": {"type": "Point", "coordinates": [-62.5734883, -39.07112651]}, "geometry_name": "geom", "properties": {"gid": 3867, "entidad": 0, "fna": "Estación Teniente Origone", "gna": "Estación", "nam": "Teniente Origone", "fun": 2, "fdc": "IGN/Ministerio de Transporte de la Nación", "sag": "IGN"}, "bbox": [-62.5734883, -39.07112651, -62.5734883, -39.07112651]}, {"type": "Feature", "id": "puntos_de_transporte_ferroviario_AN070.3868", "geometry": {"type": "Point", "coordinates": [-62.543488, -38.90568595]}, "geometry_name": "geom", "properties": {"gid": 3868, "entidad": 0, "fna": "Estación Ombucta", "gna": "Estación", "nam": "Ombucta", "fun": 2, "fdc": "IGN/Ministerio de Transporte de la Nación", "sag": "IGN"}, "bbox": [-62.543488, -38.90568595, -62.543488, -38.90568595]}, {"type": "Feature", "id": "puntos_de_transporte_ferroviario_AN070.3870", "geometry": {"type": "Point", "coordinates": [-62.64224965, -38.33749276]}, "geometry_name": "geom", "properties": {"gid": 3870, "entidad": 0, "fna": "Estación Chasicó", "gna": "Estación", "nam": "Chasicó", "fun": 6, "fdc": "IGN/Ministerio de Transporte de la Nación", "sag": "IGN"}, "bbox": [-62.64224965, -38.33749276, -62.64224965, -38.33749276]}, {"type": "Feature", "id": "puntos_de_transporte_ferroviario_AN070.3871", "geometry": {"type": "Point", "coordinates": [-62.63040917, -38.54302714]}, "geometry_name": "geom", "properties": {"gid": 3871, "entidad": 0, "fna": "Estación Nueva Roma", "gna": "Estación", "nam": "Nueva Roma", "fun": 2, "fdc": "IGN/Ministerio de Transporte de la Nación", "sag": "IGN"}, "bbox": [-62.63040917, -38.54302714, -62.63040917, -38.54302714]}, {"type": "Feature", "id": "puntos_de_transporte_ferroviario_AN070.3912", "geometry": {"type": "Point", "coordinates": [-62.6147485, -39.91653801]}, "geometry_name": "geom", "properties": {"gid": 3912, "entidad": 0, "fna": "Estación Villalonga", "gna": "Estación", "nam": "Villalonga", "fun": 2, "fdc": "IGN/Ministerio de Transporte de la Nación", "sag": "IGN"}, "bbox": [-62.6147485, -39.91653801, -62.6147485, -39.91653801]}, {"type": "Feature", "id": "puntos_de_transporte_ferroviario_AN070.3984", "geometry": {"type": "Point", "coordinates": [-64.54585441, -38.87019633]}, "geometry_name": "geom", "properties": {"gid": 3984, "entidad": 0, "fna": "Estación Juan de Garay", "gna": "Estación", "nam": "Juan de Garay", "fun": 2, "fdc": "IGN/Ministerio de Transporte de la Nación", "sag": "IGN"}, "bbox": [-64.54585441, -38.87019633, -64.54585441, -38.87019633]}, {"type": "Feature", "id": "puntos_de_transporte_ferroviario_AN070.3985", "geometry": {"type": "Point", "coordinates": [-63.36011569, -40.83686283]}, "geometry_name": "geom", "properties": {"gid": 3985, "entidad": 0, "fna": "Estación General Nicolás H. Palacios", "gna": "Estación", "nam": "General Nicolás H. Palacios", "fun": 2, "fdc": "IGN/Ministerio de Transporte de la Nación", "sag": "IGN"}, "bbox": [-63.36011569, -40.83686283, -63.36011569, -40.83686283]}, {"type": "Feature", "id": "puntos_de_transporte_ferroviario_AN070.3986", "geometry": {"type": "Point", "coordinates": [-65.44849688, -40.77765522]}, "geometry_name": "geom", "properties": {"gid": 3986, "entidad": 0, "fna": "Estación Mancha Blanca", "gna": "Estación", "nam": "Mancha Blanca", "fun": 2, "fdc": "IGN/Ministerio de Transporte de la Nación", "sag": "IGN"}, "bbox": [-65.44849688, -40.77765522, -65.44849688, -40.77765522]}, {"type": "Feature", "id": "puntos_de_transporte_ferroviario_AN070.3987", "geometry": {"type": "Point", "coordinates": [-70.13814496, -41.77299722]}, "geometry_name": "geom", "properties": {"gid": 3987, "entidad": 0, "fna": "Estación Mamuel Choique", "gna": "Estación", "nam": "Mamuel Choique", "fun": 2, "fdc": "IGN/Ministerio de Transporte de la Nación", "sag": "IGN"}, "bbox": [-70.13814496, -41.77299722, -70.13814496, -41.77299722]}, {"type": "Feature", "id": "puntos_de_transporte_ferroviario_AN070.3988", "geometry": {"type": "Point", "coordinates": [-68.3795661, -41.06591288]}, "geometry_name": "geom", "properties": {"gid": 3988, "entidad": 0, "fna": "Estación Aguada de Guerra", "gna": "Estación", "nam": "Aguada de Guerra", "fun": 2, "fdc": "IGN/Ministerio de Transporte de la Nación", "sag": "IGN"}, "bbox": [-68.3795661, -41.06591288, -68.3795661, -41.06591288]}, {"type": "Feature", "id": "puntos_de_transporte_ferroviario_AN070.4047", "geometry": {"type": "Point", "coordinates": [-63.23587457, -37.32021383]}, "geometry_name": "geom", "properties": {"gid": 4047, "entidad": 0, "fna": "Estación Delfín Huergo", "gna": "Estación", "nam": "Delfín Huergo", "fun": 2, "fdc": "IGN/Ministerio de Transporte de la Nación", "sag": "IGN"}, "bbox": [-63.23587457, -37.32021383, -63.23587457, -37.32021383]}, {"type": "Feature", "id": "puntos_de_transporte_ferroviario_AN070.4055", "geometry": {"type": "Point", "coordinates": [-62.93847861, -37.91292915]}, "geometry_name": "geom", "properties": {"gid": 4055, "entidad": 0, "fna": "Estación 17 de Agosto", "gna": "Estación", "nam": "17 de Agosto", "fun": 6, "fdc": "IGN/Ministerio de Transporte de la Nación", "sag": "IGN"}, "bbox": [-62.93847861, -37.91292915, -62.93847861, -37.91292915]}, {"type": "Feature", "id": "puntos_de_transporte_ferroviario_AN070.4071", "geometry": {"type": "Point", "coordinates": [-63.35402882, -38.92446329]}, "geometry_name": "geom", "properties": {"gid": 4071, "entidad": 0, "fna": "Estación Montes de Oca", "gna": "Estación", "nam": "Montes de Oca", "fun": 4, "fdc": "IGN/Ministerio de Transporte de la Nación", "sag": "IGN"}, "bbox": [-63.35402882, -38.92446329, -63.35402882, -38.92446329]}, {"type": "Feature", "id": "puntos_de_transporte_ferroviario_AN070.4078", "geometry": {"type": "Point", "coordinates": [-62.9795494, -40.79153067]}, "geometry_name": "geom", "properties": {"gid": 4078, "entidad": 0, "fna": "Estación Carmen de Patagones", "gna": "Estación", "nam": "Carmen de Patagones", "fun": 2, "fdc": "IGN/Ministerio de Transporte de la Nación", "sag": "IGN"}, "bbox": [-62.9795494, -40.79153067, -62.9795494, -40.79153067]}, {"type": "Feature", "id": "puntos_de_transporte_ferroviario_AN070.4211", "geometry": {"type": "Point", "coordinates": [-64.02505559, -37.7912249]}, "geometry_name": "geom", "properties": {"gid": 4211, "entidad": 0, "fna": "Estación Hucal", "gna": "Estación", "nam": "Hucal", "fun": 2, "fdc": "IGN/Ministerio de Transporte de la Nación", "sag": "IGN"}, "bbox": [-64.02505559, -37.7912249, -64.02505559, -37.7912249]}, {"type": "Feature", "id": "puntos_de_transporte_ferroviario_AN070.4417", "geometry": {"type": "Point", "coordinates": [-68.70260863, -41.25002053]}, "geometry_name": "geom", "properties": {"gid": 4417, "entidad": 0, "fna": "Estación Maquinchao", "gna": "Estación", "nam": "Maquinchao", "fun": 6, "fdc": "IGN/Tren Patagónico", "sag": "IGN"}, "bbox": [-68.70260863, -41.25002053, -68.70260863, -41.25002053]}, {"type": "Feature", "id": "puntos_de_transporte_ferroviario_AN070.4418", "geometry": {"type": "Point", "coordinates": [-70.03497314, -41.24625795]}, "geometry_name": "geom", "properties": {"gid": 4418, "entidad": 0, "fna": "Estación Clemente Onelli", "gna": "Estación", "nam": "Clemente Onelli", "fun": 6, "fdc": "IGN/Tren Patagónico", "sag": "IGN"}, "bbox": [-70.03497314, -41.24625795, -70.03497314, -41.24625795]}, {"type": "Feature", "id": "puntos_de_transporte_ferroviario_AN070.4556", "geometry": {"type": "Point", "coordinates": [-62.75975188, -37.54130718]}, "geometry_name": "geom", "properties": {"gid": 4556, "entidad": 0, "fna": "Estación Puán", "gna": "Estación", "nam": "Puán", "fun": 2, "fdc": "IGN/Ministerio de Transporte de la Nación", "sag": "IGN"}, "bbox": [-62.75975188, -37.54130718, -62.75975188, -37.54130718]}, {"type": "Feature", "id": "puntos_de_transporte_ferroviario_AN070.4557", "geometry": {"type": "Point", "coordinates": [-63.58292715, -37.45905736]}, "geometry_name": "geom", "properties": {"gid": 4557, "entidad": 0, "fna": "Estación General Manuel J. Campos", "gna": "Estación", "nam": "General Manuel J. Campos", "fun": 2, "fdc": "IGN/Ministerio de Transporte de la Nación", "sag": "IGN"}, "bbox": [-63.58292715, -37.45905736, -63.58292715, -37.45905736]}, {"type": "Feature", "id": "puntos_de_transporte_ferroviario_AN070.4558", "geometry": {"type": "Point", "coordinates": [-63.77141716, -37.37528854]}, "geometry_name": "geom", "properties": {"gid": 4558, "entidad": 0, "fna": "Estación Alpachiri", "gna": "Estación", "nam": "Alpachiri", "fun": 2, "fdc": "IGN/Ministerio de Transporte de la Nación", "sag": "IGN"}, "bbox": [-63.77141716, -37.37528854, -63.77141716, -37.37528854]}, {"type": "Feature", "id": "puntos_de_transporte_ferroviario_AN070.4559", "geometry": {"type": "Point", "coordinates": [-63.53784963, -37.66520648]}, "geometry_name": "geom", "properties": {"gid": 4559, "entidad": 0, "fna": "Estación Guatraché", "gna": "Estación", "nam": "Guatraché", "fun": 2, "fdc": "IGN/Ministerio de Transporte de la Nación", "sag": "IGN"}, "bbox": [-63.53784963, -37.66520648, -63.53784963, -37.66520648]}, {"type": "Feature", "id": "puntos_de_transporte_ferroviario_AN070.4560", "geometry": {"type": "Point", "coordinates": [-62.70006218, -37.64848381]}, "geometry_name": "geom", "properties": {"gid": 4560, "entidad": 0, "fna": "Estación Alta Vista", "gna": "Estación", "nam": "Alta Vista", "fun": 2, "fdc": "IGN/Ministerio de Transporte de la Nación", "sag": "IGN"}, "bbox": [-62.70006218, -37.64848381, -62.70006218, -37.64848381]}, {"type": "Feature", "id": "puntos_de_transporte_ferroviario_AN070.4562", "geometry": {"type": "Point", "coordinates": [-63.23723411, -38.17469028]}, "geometry_name": "geom", "properties": {"gid": 4562, "entidad": 0, "fna": "Estación Villa Iris", "gna": "Estación", "nam": "Villa Iris", "fun": 2, "fdc": "IGN/Ministerio de Transporte de la Nación", "sag": "IGN"}, "bbox": [-63.23723411, -38.17469028, -63.23723411, -38.17469028]}, {"type": "Feature", "id": "puntos_de_transporte_ferroviario_AN070.4565", "geometry": {"type": "Point", "coordinates": [-62.69631478, -38.82241866]}, "geometry_name": "geom", "properties": {"gid": 4565, "entidad": 0, "fna": "Estación Médanos", "gna": "Estación", "nam": "Médanos", "fun": 2, "fdc": "IGN/Ministerio de Transporte de la Nación", "sag": "IGN"}, "bbox": [-62.69631478, -38.82241866, -62.69631478, -38.82241866]}, {"type": "Feature", "id": "puntos_de_transporte_ferroviario_AN070.4566", "geometry": {"type": "Point", "coordinates": [-62.60275821, -38.77155829]}, "geometry_name": "geom", "properties": {"gid": 4566, "entidad": 0, "fna": "Estación Argerich", "gna": "Estación", "nam": "Argerich", "fun": 2, "fdc": "IGN/Ministerio de Transporte de la Nación", "sag": "IGN"}, "bbox": [-62.60275821, -38.77155829, -62.60275821, -38.77155829]}, {"type": "Feature", "id": "puntos_de_transporte_ferroviario_AN070.4570", "geometry": {"type": "Point", "coordinates": [-65.95890997, -39.18918408]}, "geometry_name": "geom", "properties": {"gid": 4570, "entidad": 0, "fna": "Estación Coronel Belisle", "gna": "Estación", "nam": "Coronel Belisle", "fun": 2, "fdc": "IGN/Ministerio de Transporte de la Nación", "sag": "IGN"}, "bbox": [-65.95890997, -39.18918408, -65.95890997, -39.18918408]}, {"type": "Feature", "id": "puntos_de_transporte_ferroviario_AN070.4656", "geometry": {"type": "Point", "coordinates": [-62.81647553, -38.01054216]}, "geometry_name": "geom", "properties": {"gid": 4656, "entidad": 0, "fna": "Estación Felipe Solá", "gna": "Estación", "nam": "Felipe Solá", "fun": 2, "fdc": "IGN/Ministerio de Transporte de la Nación", "sag": "IGN"}, "bbox": [-62.81647553, -38.01054216, -62.81647553, -38.01054216]}, {"type": "Feature", "id": "puntos_de_transporte_ferroviario_AN070.4788", "geometry": {"type": "Point", "coordinates": [-62.80427651, -37.69576338]}, "geometry_name": "geom", "properties": {"gid": 4788, "entidad": 0, "fna": "Estación Víboras", "gna": "Estación", "nam": "Víboras", "fun": 2, "fdc": "IGN/Ministerio de Transporte de la Nación", "sag": "IGN"}, "bbox": [-62.80427651, -37.69576338, -62.80427651, -37.69576338]}, {"type": "Feature", "id": "puntos_de_transporte_ferroviario_AN070.4789", "geometry": {"type": "Point", "coordinates": [-62.90170354, -37.70154389]}, "geometry_name": "geom", "properties": {"gid": 4789, "entidad": 0, "fna": "Estación Azopardo", "gna": "Estación", "nam": "Azopardo", "fun": 2, "fdc": "IGN/Ministerio de Transporte de la Nación", "sag": "IGN"}, "bbox": [-62.90170354, -37.70154389, -62.90170354, -37.70154389]}, {"type": "Feature", "id": "puntos_de_transporte_ferroviario_AN070.4790", "geometry": {"type": "Point", "coordinates": [-63.06354722, -37.71203017]}, "geometry_name": "geom", "properties": {"gid": 4790, "entidad": 0, "fna": "Estación Tres Cuervos", "gna": "Estación", "nam": "Tres Cuervos", "fun": 2, "fdc": "IGN/Ministerio de Transporte de la Nación", "sag": "IGN"}, "bbox": [-63.06354722, -37.71203017, -63.06354722, -37.71203017]}, {"type": "Feature", "id": "puntos_de_transporte_ferroviario_AN070.4791", "geometry": {"type": "Point", "coordinates": [-62.77561506, -38.082163]}, "geometry_name": "geom", "properties": {"gid": 4791, "entidad": 0, "fna": "Empalme Piedra Ehada", "gna": "Empalme", "nam": "Piedra Ehada", "fun": 2, "fdc": "IGN/Ministerio de Transporte de la Nación", "sag": "IGN"}, "bbox": [-62.77561506, -38.082163, -62.77561506, -38.082163]}, {"type": "Feature", "id": "puntos_de_transporte_ferroviario_AN070.4792", "geometry": {"type": "Point", "coordinates": [-62.72694389, -38.11961555]}, "geometry_name": "geom", "properties": {"gid": 4792, "entidad": 0, "fna": "Estación López Lecube", "gna": "Estación", "nam": "López Lecube", "fun": 2, "fdc": "IGN/Ministerio de Transporte de la Nación", "sag": "IGN"}, "bbox": [-62.72694389, -38.11961555, -62.72694389, -38.11961555]}, {"type": "Feature", "id": "puntos_de_transporte_ferroviario_AN070.4793", "geometry": {"type": "Point", "coordinates": [-62.69162346, -38.19461749]}, "geometry_name": "geom", "properties": {"gid": 4793, "entidad": 0, "fna": "Estación Pelicurá", "gna": "Estación", "nam": "Pelicurá", "fun": 2, "fdc": "IGN/Ministerio de Transporte de la Nación", "sag": "IGN"}, "bbox": [-62.69162346, -38.19461749, -62.69162346, -38.19461749]}, {"type": "Feature", "id": "puntos_de_transporte_ferroviario_AN070.4794", "geometry": {"type": "Point", "coordinates": [-62.52837099, -38.63267233]}, "geometry_name": "geom", "properties": {"gid": 4794, "entidad": 0, "fna": "Estación Alférez San Martín", "gna": "Estación", "nam": "Alférez San Martín", "fun": 2, "fdc": "IGN/Ministerio de Transporte de la Nación", "sag": "IGN"}, "bbox": [-62.52837099, -38.63267233, -62.52837099, -38.63267233]}, {"type": "Feature", "id": "puntos_de_transporte_ferroviario_AN070.4795", "geometry": {"type": "Point", "coordinates": [-62.69696058, -38.46964343]}, "geometry_name": "geom", "properties": {"gid": 4795, "entidad": 0, "fna": "Estación Choique", "gna": "Estación", "nam": "Choique", "fun": 2, "fdc": "IGN/Ministerio de Transporte de la Nación", "sag": "IGN"}, "bbox": [-62.69696058, -38.46964343, -62.69696058, -38.46964343]}, {"type": "Feature", "id": "puntos_de_transporte_ferroviario_AN070.4796", "geometry": {"type": "Point", "coordinates": [-62.8189408, -38.41561238]}, "geometry_name": "geom", "properties": {"gid": 4796, "entidad": 0, "fna": "Estación Berraondo", "gna": "Estación", "nam": "Berraondo", "fun": 2, "fdc": "IGN/Ministerio de Transporte de la Nación", "sag": "IGN"}, "bbox": [-62.8189408, -38.41561238, -62.8189408, -38.41561238]}, {"type": "Feature", "id": "puntos_de_transporte_ferroviario_AN070.4797", "geometry": {"type": "Point", "coordinates": [-62.98318613, -38.30314516]}, "geometry_name": "geom", "properties": {"gid": 4797, "entidad": 0, "fna": "Estación San Germán", "gna": "Estación", "nam": "San Germán", "fun": 2, "fdc": "IGN/Ministerio de Transporte de la Nación", "sag": "IGN"}, "bbox": [-62.98318613, -38.30314516, -62.98318613, -38.30314516]}, {"type": "Feature", "id": "puntos_de_transporte_ferroviario_AN070.4798", "geometry": {"type": "Point", "coordinates": [-63.12095466, -38.23905074]}, "geometry_name": "geom", "properties": {"gid": 4798, "entidad": 0, "fna": "Estación Rondeau", "gna": "Estación", "nam": "Rondeau", "fun": 2, "fdc": "IGN/Ministerio de Transporte de la Nación", "sag": "IGN"}, "bbox": [-63.12095466, -38.23905074, -63.12095466, -38.23905074]}, {"type": "Feature", "id": "puntos_de_transporte_ferroviario_AN070.4799", "geometry": {"type": "Point", "coordinates": [-63.05228504, -38.14653195]}, "geometry_name": "geom", "properties": {"gid": 4799, "entidad": 0, "fna": "Estación Rivadeo", "gna": "Estación", "nam": "Rivadeo", "fun": 2, "fdc": "IGN/Ministerio de Transporte de la Nación", "sag": "IGN"}, "bbox": [-63.05228504, -38.14653195, -63.05228504, -38.14653195]}, {"type": "Feature", "id": "puntos_de_transporte_ferroviario_AN070.4800", "geometry": {"type": "Point", "coordinates": [-62.6606398, -38.79253435]}, "geometry_name": "geom", "properties": {"gid": 4800, "entidad": 0, "fna": "Estación Mascota", "gna": "Estación", "nam": "Mascota", "fun": 4, "fdc": "IGN/Ministerio de Transporte de la Nación", "sag": "IGN"}, "bbox": [-62.6606398, -38.79253435, -62.6606398, -38.79253435]}, {"type": "Feature", "id": "puntos_de_transporte_ferroviario_AN070.4801", "geometry": {"type": "Point", "coordinates": [-62.87751692, -38.85096266]}, "geometry_name": "geom", "properties": {"gid": 4801, "entidad": 0, "fna": "Estación Nicolás Levalle", "gna": "Estación", "nam": "Nicolás Levalle", "fun": 2, "fdc": "IGN/Ministerio de Transporte de la Nación", "sag": "IGN"}, "bbox": [-62.87751692, -38.85096266, -62.87751692, -38.85096266]}, {"type": "Feature", "id": "puntos_de_transporte_ferroviario_AN070.4803", "geometry": {"type": "Point", "coordinates": [-62.61385891, -39.7792696]}, "geometry_name": "geom", "properties": {"gid": 4803, "entidad": 0, "fna": "Estación Igarzabal", "gna": "Estación", "nam": "Igarzabal", "fun": 2, "fdc": "IGN/Ministerio de Transporte de la Nación", "sag": "IGN"}, "bbox": [-62.61385891, -39.7792696, -62.61385891, -39.7792696]}]}